SIRION PATHFINDER-2     
1 43759U 18099B   26138.38207870  .00002718  00000+0  15208-3 0  9996
2 43759  97.4270 188.1510 0009932  51.7569 308.4555 15.14250245408112
CORVUS BC4              
1 43767U 18099K   26138.94400789  .00003161  00000+0  18642-3 0  9999
2 43767  97.4086 182.7828 0010049 101.4769 258.7591 15.12231283407984
M2 PATHFINDER           
1 45727U 20037E   26138.25291086  .00001188  00000+0  89307-4 0  9998
2 45727  97.8161 329.1504 0009930 251.4495 108.5652 15.04533933320990
NETSAT-4                
1 46504U 20068U   26138.94836613  .00011895  00000+0  27348-3 0  9995
2 46504  97.8611 144.8644 0007413  74.3588 285.8475 15.42810264311269
NETSAT-3                
1 46505U 20068V   26138.80195486  .00012010  00000+0  28759-3 0  9994
2 46505  97.8661 142.9613 0007481  87.9231 272.2871 15.41580825311154
NETSAT-1                
1 46506U 20068W   26138.72119654  .00008004  00000+0  24689-3 0  9995
2 46506  97.8750 137.5460 0006961 107.5229 252.6773 15.33860375310785
NETSAT-2                
1 46507U 20068X   26138.24858022  .00013290  00000+0  28725-3 0  9990
2 46507  97.8625 143.9020 0006292  98.9669 261.2291 15.44629562311110
GREENCUBE (IO-117)      
1 53109U 22080E   26138.45774430 -.00000003  00000+0  00000+0 0  9996
2 53109  70.1432 308.5883 0008836 296.6746  63.3009  6.42583323 90159
SITRO-AIS 5 (KATYS)     
1 57176U 23091L   26138.94883131  .00007514  00000+0  27141-3 0  9992
2 57176  97.5073 202.5842 0011300 197.6564 162.4285 15.28716117159872
SITRO-AIS 6 (CHIRKIN)   
1 57192U 23091AC  26138.92715563  .00006639  00000+0  26596-3 0  9991
2 57192  97.5081 201.8334 0011420 201.0807 158.9961 15.25322475159823
SITRO-AIS 8 (ANOKHIN)   
1 57193U 23091AD  26138.88504441  .00009007  00000+0  30036-3 0  9994
2 57193  97.5068 203.9926 0010603 193.3724 166.7238 15.31264238159960
SITRO-AIS 7 (FARTUSHNIY)
1 57194U 23091AE  26138.92445389  .00006506  00000+0  26305-3 0  9990
2 57194  97.5078 201.6704 0011221 202.1627 157.9127 15.25024740159817
SITRO-AIS 10 (BURDAEV)  
1 57199U 23091AK  26138.97162361  .00012728  00000+0  34890-3 0  9997
2 57199  97.5091 208.8409 0007587 166.4699 193.6750 15.37405909160273
SITRO-AIS 9 (SHCHUKIN)  
1 57201U 23091AM  26138.92398984  .00012841  00000+0  35719-3 0  9995
2 57201  97.5089 208.5443 0007773 167.0862 193.0582 15.36948429160258
SITRO-AIS 12 (SMIRENNIY)
1 57204U 23091AQ  26138.92008261  .00012466  00000+0  34368-3 0  9996
2 57204  97.5101 208.9894 0007565 161.4455 198.7066 15.37233840160271
SITRO-AIS 11 (SHEFFER)  
1 57208U 23091AU  26138.94131870  .00012582  00000+0  34248-3 0  9991
2 57208  97.5100 209.2398 0007490 161.0637 199.0888 15.37629660160299
SITRO-AIS 25            
1 59066U 24039R   26138.96177654  .00003493  00000+0  27197-3 0  9996
2 59066  95.3918 215.0119 0147306  70.6732 291.0356 14.93298174120364
SITRO-AIS 26            
1 59067U 24039S   26138.95920571  .00003323  00000+0  26002-3 0  9996
2 59067  95.3918 214.9137 0147623  71.2199 290.4976 14.93100059120353
SITRO-AIS 27            
1 59068U 24039T   26138.93758456  .00003158  00000+0  24521-3 0  9996
2 59068  95.3918 215.1572 0146565  69.9773 291.7164 14.93510058120375
SITRO-AIS 28            
1 59071U 24039U   26138.98269472  .00002778  00000+0  21583-3 0  9992
2 59071  95.3922 215.2337 0146531  69.6597 292.0303 14.93547069120380
GRBBETA                 
1 60237U 24128C   26138.21904840  .00002680  00000+0  19190-3 0  9991
2 60237  61.9902 321.3893 0044713 128.4087 232.1034 15.06369713101755
OOV-CUBE (TUBSAT-30)    
1 60240U 24128F   26138.90987032  .00001586  00000+0  13147-3 0  9995
2 60240  61.9945 327.6503 0048284 127.3825 233.1677 15.02608745101715
ROBUSTA-3A (MEDITERRAN*)
1 60243U 24128J   26138.89331251  .00005615  00000+0  33797-3 0  9992
2 60243  61.9868 311.8010 0045402 122.4855 238.0641 15.11170902101992
LASARSAT                
1 62391U 24247Q   26138.50005313  .00019038  00000+0  40960-3 0  9999
2 62391  44.9758  68.7838 0005414 160.1412 199.9689 15.44392444 78724
CROCUBE                 
1 62394U 24247T   26138.20848085  .00021336  00000+0  43364-3 0  9995
2 62394  44.9731  68.2037 0005074 161.9433 198.1638 15.45997443 78702
FORESAIL-1 PRIME        
1 66778U 25276DS  26138.14640364  .00003594  00000+0  17800-3 0  9993
2 66778  97.4208 211.9724 0002300 170.4072 189.7206 15.18400035 25847
KNACKSAT-2              
1 67683U 98067XZ  26138.85612801  .00030213  00000+0  41089-3 0  9994
2 67683  51.6306  81.7032 0012214  91.5513 268.6879 15.57233816 15708
